{"type": "FeatureCollection", "features": [ {"type": "Feature", "properties": {"norad_id": 34529, "name": "IRIDIUM 33 DEB", "group": "iridium-33-debris", "lat": 85.43853576831243, "lon": 89.88766931632104, "alt_km": 749.6943003931001, "timestamp": "2025-12-08T21:31:05.051819+00:00", "meta": {"OBJECT_NAME": "IRIDIUM 33 DEB", "OBJECT_ID": "1997-051HW", "EPOCH": "2025-12-08T04:26:38.874624", "MEAN_MOTION": 14.40610073, "ECCENTRICITY": 0.00042345, "INCLINATION": 86.3644, "RA_OF_ASC_NODE": 37.3532, "ARG_OF_PERICENTER": 192.5106, "MEAN_ANOMALY": 167.5989, "EPHEMERIS_TYPE": 0, "CLASSIFICATION_TYPE": "U", "NORAD_CAT_ID": 34529, "ELEMENT_SET_NO": 999, "REV_AT_EPOCH": 88076, "BSTAR": 0.00018799813, "MEAN_MOTION_DOT": 6.19e-06, "MEAN_MOTION_DDOT": 0}, "tle": {"line1": "1 34529U 97051HW  25342.18517216  .00000619  00000+0  18800-3 0  9997", "line2": "2 34529  86.3644  37.3532 0004234 192.5106 167.5989 14.40610073880766"}}, "geometry": {"type": "Point", "coordinates": [89.88766931632104, 85.43853576831243]}}, {"type": "Feature", "properties": {"norad_id": 34538, "name": "IRIDIUM 33 DEB", "group": "iridium-33-debris", "lat": -75.68441169371278, "lon": -157.97875415853747, "alt_km": 755.1209646700809, "timestamp": "2025-12-08T21:31:05.051829+00:00", "meta": {"OBJECT_NAME": "IRIDIUM 33 DEB", "OBJECT_ID": "1997-051JF", "EPOCH": "2025-12-08T12:43:03.891360", "MEAN_MOTION": 14.42610474, "ECCENTRICITY": 0.00333253, "INCLINATION": 86.2772, "RA_OF_ASC_NODE": 7.3997, "ARG_OF_PERICENTER": 342.2911, "MEAN_ANOMALY": 171.1189, "EPHEMERIS_TYPE": 0, "CLASSIFICATION_TYPE": "U", "NORAD_CAT_ID": 34538, "ELEMENT_SET_NO": 999, "REV_AT_EPOCH": 87695, "BSTAR": 0.0013892431, "MEAN_MOTION_DOT": 4.663e-05, "MEAN_MOTION_DDOT": 0}, "tle": {"line1": "1 34538U 97051JF  25342.52990615  .00004663  00000+0  13892-2 0  9991", "line2": "2 34538  86.2772   7.3997 0033325 342.2911 171.1189 14.42610474876956"}}, "geometry": {"type": "Point", "coordinates": [-157.97875415853747, -75.68441169371278]}}, {"type": "Feature", "properties": {"norad_id": 34540, "name": "IRIDIUM 33 DEB", "group": "iridium-33-debris", "lat": -44.05490452699879, "lon": 132.94249519865255, "alt_km": 644.4548282993337, "timestamp": "2025-12-08T21:31:05.051839+00:00", "meta": {"OBJECT_NAME": "IRIDIUM 33 DEB", "OBJECT_ID": "1997-051JH", "EPOCH": "2025-12-08T09:40:04.078272", "MEAN_MOTION": 14.75175459, "ECCENTRICITY": 0.00156424, "INCLINATION": 86.3108, "RA_OF_ASC_NODE": 309.589, "ARG_OF_PERICENTER": 174.5851, "MEAN_ANOMALY": 308.8741, "EPHEMERIS_TYPE": 0, "CLASSIFICATION_TYPE": "U", "NORAD_CAT_ID": 34540, "ELEMENT_SET_NO": 999, "REV_AT_EPOCH": 88957, "BSTAR": 0.0020897617, "MEAN_MOTION_DOT": 0.00014177, "MEAN_MOTION_DDOT": 0}, "tle": {"line1": "1 34540U 97051JH  25342.40282498  .00014177  00000+0  20898-2 0  9999", "line2": "2 34540  86.3108 309.5890 0015642 174.5851 308.8741 14.75175459889573"}}, "geometry": {"type": "Point", "coordinates": [132.94249519865255, -44.05490452699879]}}, {"type": "Feature", "properties": {"norad_id": 34648, "name": "IRIDIUM 33 DEB", "group": "iridium-33-debris", "lat": 8.406274793098909, "lon": 102.96366839874902, "alt_km": 956.7975061500774, "timestamp": "2025-12-08T21:31:05.051850+00:00", "meta": {"OBJECT_NAME": "IRIDIUM 33 DEB", "OBJECT_ID": "1997-051JZ", "EPOCH": "2025-12-08T13:53:15.909504", "MEAN_MOTION": 14.11285749, "ECCENTRICITY": 0.0184134, "INCLINATION": 86.3917, "RA_OF_ASC_NODE": 283.6262, "ARG_OF_PERICENTER": 311.8216, "MEAN_ANOMALY": 46.7365, "EPHEMERIS_TYPE": 0, "CLASSIFICATION_TYPE": "U", "NORAD_CAT_ID": 34648, "ELEMENT_SET_NO": 999, "REV_AT_EPOCH": 84902, "BSTAR": 0.011654407, "MEAN_MOTION_DOT": 0.00024755, "MEAN_MOTION_DDOT": 0}, "tle": {"line1": "1 34648U 97051JZ  25342.57865636  .00024755  00000+0  11654-1 0  9999", "line2": "2 34648  86.3917 283.6262 0184134 311.8216  46.7365 14.11285749849029"}}, "geometry": {"type": "Point", "coordinates": [102.96366839874902, 8.406274793098909]}}, {"type": "Feature", "properties": {"norad_id": 34651, "name": "IRIDIUM 33 DEB", "group": "iridium-33-debris", "lat": 32.05043498097838, "lon": 144.5432181203732, "alt_km": 906.0779509114009, "timestamp": "2025-12-08T21:31:05.051861+00:00", "meta": {"OBJECT_NAME": "IRIDIUM 33 DEB", "OBJECT_ID": "1997-051KC", "EPOCH": "2025-12-08T11:15:25.709184", "MEAN_MOTION": 14.25701829, "ECCENTRICITY": 0.01419793, "INCLINATION": 86.2851, "RA_OF_ASC_NODE": 142.3937, "ARG_OF_PERICENTER": 217.4974, "MEAN_ANOMALY": 141.625, "EPHEMERIS_TYPE": 0, "CLASSIFICATION_TYPE": "U", "NORAD_CAT_ID": 34651, "ELEMENT_SET_NO": 999, "REV_AT_EPOCH": 85835, "BSTAR": 0.0043129114, "MEAN_MOTION_DOT": 0.00011398, "MEAN_MOTION_DDOT": 0}, "tle": {"line1": "1 34651U 97051KC  25342.46904756  .00011398  00000+0  43129-2 0  9990", "line2": "2 34651  86.2851 142.3937 0141979 217.4974 141.6250 14.25701829858352"}}, "geometry": {"type": "Point", "coordinates": [144.5432181203732, 32.05043498097838]}}, {"type": "Feature", "properties": {"norad_id": 34652, "name": "IRIDIUM 33 DEB", "group": "iridium-33-debris", "lat": -57.69651222269497, "lon": -24.11258081359338, "alt_km": 675.599165170488, "timestamp": "2025-12-08T21:31:05.051871+00:00", "meta": {"OBJECT_NAME": "IRIDIUM 33 DEB", "OBJECT_ID": "1997-051KD", "EPOCH": "2025-12-08T10:58:52.274208", "MEAN_MOTION": 14.61994532, "ECCENTRICITY": 0.00263276, "INCLINATION": 86.3309, "RA_OF_ASC_NODE": 341.9078, "ARG_OF_PERICENTER": 313.8102, "MEAN_ANOMALY": 199.1921, "EPHEMERIS_TYPE": 0, "CLASSIFICATION_TYPE": "U", "NORAD_CAT_ID": 34652, "ELEMENT_SET_NO": 999, "REV_AT_EPOCH": 88421, "BSTAR": 0.0013948529, "MEAN_MOTION_DOT": 7.048e-05, "MEAN_MOTION_DDOT": 0}, "tle": {"line1": "1 34652U 97051KD  25342.45754947  .00007048  00000+0  13949-2 0  9999", "line2": "2 34652  86.3309 341.9078 0026327 313.8102 199.1921 14.61994532884210"}}, "geometry": {"type": "Point", "coordinates": [-24.11258081359338, -57.69651222269497]}}, {"type": "Feature", "properties": {"norad_id": 34690, "name": "IRIDIUM 33 DEB", "group": "iridium-33-debris", "lat": -80.28365065847277, "lon": -119.62779157889773, "alt_km": 722.7097667095577, "timestamp": "2025-12-08T21:31:05.051881+00:00", "meta": {"OBJECT_NAME": "IRIDIUM 33 DEB", "OBJECT_ID": "1997-051KM", "EPOCH": "2025-12-08T10:30:30.417984", "MEAN_MOTION": 14.55072153, "ECCENTRICITY": 0.0011347, "INCLINATION": 86.3781, "RA_OF_ASC_NODE": 38.8609, "ARG_OF_PERICENTER": 42.3651, "MEAN_ANOMALY": 337.2533, "EPHEMERIS_TYPE": 0, "CLASSIFICATION_TYPE": "U", "NORAD_CAT_ID": 34690, "ELEMENT_SET_NO": 999, "REV_AT_EPOCH": 88032, "BSTAR": 0.00077031918, "MEAN_MOTION_DOT": 3.344e-05, "MEAN_MOTION_DDOT": 0}, "tle": {"line1": "1 34690U 97051KM  25342.43785206  .00003344  00000+0  77032-3 0  9990", "line2": "2 34690  86.3781  38.8609 0011347  42.3651 337.2533 14.55072153880328"}}, "geometry": {"type": "Point", "coordinates": [-119.62779157889773, -80.28365065847277]}}, {"type": "Feature", "properties": {"norad_id": 34693, "name": "IRIDIUM 33 DEB", "group": "iridium-33-debris", "lat": 32.64490134073258, "lon": -51.896282677796876, "alt_km": 475.20935915119844, "timestamp": "2025-12-08T21:31:05.051891+00:00", "meta": {"OBJECT_NAME": "IRIDIUM 33 DEB", "OBJECT_ID": "1997-051KQ", "EPOCH": "2025-12-08T15:50:05.259840", "MEAN_MOTION": 15.26461537, "ECCENTRICITY": 0.00148465, "INCLINATION": 86.3061, "RA_OF_ASC_NODE": 305.849, "ARG_OF_PERICENTER": 59.4216, "MEAN_ANOMALY": 113.0405, "EPHEMERIS_TYPE": 0, "CLASSIFICATION_TYPE": "U", "NORAD_CAT_ID": 34693, "ELEMENT_SET_NO": 999, "REV_AT_EPOCH": 88852, "BSTAR": 0.0056202555, "MEAN_MOTION_DOT": 0.00149619, "MEAN_MOTION_DDOT": 0}, "tle": {"line1": "1 34693U 97051KQ  25342.65978310  .00149619  00000+0  56203-2 0  9999", "line2": "2 34693  86.3061 305.8490 0014846  59.4216 113.0405 15.26461537888525"}}, "geometry": {"type": "Point", "coordinates": [-51.896282677796876, 32.64490134073258]}}, {"type": "Feature", "properties": {"norad_id": 34696, "name": "IRIDIUM 33 DEB", "group": "iridium-33-debris", "lat": -83.0823292886821, "lon": -117.32275347078324, "alt_km": 679.173584299785, "timestamp": "2025-12-08T21:31:05.051901+00:00", "meta": {"OBJECT_NAME": "IRIDIUM 33 DEB", "OBJECT_ID": "1997-051KT", "EPOCH": "2025-12-08T14:27:39.651264", "MEAN_MOTION": 14.64750758, "ECCENTRICITY": 0.00743176, "INCLINATION": 86.1849, "RA_OF_ASC_NODE": 29.4472, "ARG_OF_PERICENTER": 181.4638, "MEAN_ANOMALY": 332.3745, "EPHEMERIS_TYPE": 0, "CLASSIFICATION_TYPE": "U", "NORAD_CAT_ID": 34696, "ELEMENT_SET_NO": 999, "REV_AT_EPOCH": 86612, "BSTAR": 0.0061607516, "MEAN_MOTION_DOT": 0.00034329, "MEAN_MOTION_DDOT": 0}, "tle": {"line1": "1 34696U 97051KT  25342.60254226  .00034329  00000+0  61608-2 0  9996", "line2": "2 34696  86.1849  29.4472 0074317 181.4638 332.3745 14.64750758866124"}}, "geometry": {"type": "Point", "coordinates": [-117.32275347078324, -83.0823292886821]}}, {"type": "Feature", "properties": {"norad_id": 34765, "name": "IRIDIUM 33 DEB", "group": "iridium-33-debris", "lat": 48.150402314357784, "lon": -149.6876991781374, "alt_km": 753.4271618099665, "timestamp": "2025-12-08T21:31:05.051911+00:00", "meta": {"OBJECT_NAME": "IRIDIUM 33 DEB", "OBJECT_ID": "1997-051LJ", "EPOCH": "2025-12-08T02:42:04.212864", "MEAN_MOTION": 14.40446834, "ECCENTRICITY": 0.00149899, "INCLINATION": 86.3396, "RA_OF_ASC_NODE": 34.7471, "ARG_OF_PERICENTER": 227.7302, "MEAN_ANOMALY": 160.9531, "EPHEMERIS_TYPE": 0, "CLASSIFICATION_TYPE": "U", "NORAD_CAT_ID": 34765, "ELEMENT_SET_NO": 999, "REV_AT_EPOCH": 87547, "BSTAR": 0.00060973087, "MEAN_MOTION_DOT": 1.958e-05, "MEAN_MOTION_DDOT": 0}, "tle": {"line1": "1 34765U 97051LJ  25342.11254876  .00001958  00000+0  60973-3 0  9997", "line2": "2 34765  86.3396  34.7471 0014989 227.7302 160.9531 14.40446834875476"}}, "geometry": {"type": "Point", "coordinates": [-149.6876991781374, 48.150402314357784]}}]}